PLEIADES NEO 3          
1 48268U 21034A   26198.30509687  .00000769  00000+0  10431-3 0  9995
2 48268  97.8942 272.6385 0001372  96.1850 263.9519 14.81671176282115
PLEIADES NEO 4          
1 49070U 21073E   26198.33885309 -.00000137  00000+0 -10755-4 0  9992
2 49070  97.8941 272.6678 0001326  93.4771 266.6594 14.81672621265831
