{"fetched_at":"2026-07-17T17:38:30.220Z","source":"https://celestrak.org/NORAD/elements/gp.php?NAME=PLEIADES&FORMAT=JSON","constellation":"pleiades-neo","records":[{"OBJECT_NAME":"PLEIADES NEO 3","OBJECT_ID":"2021-034A","EPOCH":"2026-07-17T07:19:20.369568","CLASSIFICATION_TYPE":"U","MEAN_MOTION":14.81671176,"ECCENTRICITY":0.00013722,"INCLINATION":97.8942,"RA_OF_ASC_NODE":272.6385,"ARG_OF_PERICENTER":96.185,"MEAN_ANOMALY":263.9519,"EPHEMERIS_TYPE":0,"NORAD_CAT_ID":48268,"ELEMENT_SET_NO":999,"REV_AT_EPOCH":28211,"BSTAR":0.00010430711,"MEAN_MOTION_DOT":0.00000769,"MEAN_MOTION_DDOT":0},{"OBJECT_NAME":"PLEIADES NEO 4","OBJECT_ID":"2021-073E","EPOCH":"2026-07-17T08:07:56.906976","CLASSIFICATION_TYPE":"U","MEAN_MOTION":14.81672621,"ECCENTRICITY":0.00013264,"INCLINATION":97.8941,"RA_OF_ASC_NODE":272.6678,"ARG_OF_PERICENTER":93.4771,"MEAN_ANOMALY":266.6594,"EPHEMERIS_TYPE":0,"NORAD_CAT_ID":49070,"ELEMENT_SET_NO":999,"REV_AT_EPOCH":26583,"BSTAR":-0.000010755374,"MEAN_MOTION_DOT":-0.00000137,"MEAN_MOTION_DDOT":0}]}
